start=new Date('2022-10-30T00:00:00.000Z').valueOf();
sats=[{"FILE":"3637424","OBJECT_TYPE":"PAYLOAD","REF_FRAME":"TEME","LAUNCH_DATE":"2020-10-18","MEAN_MOTION":"15.06400718","MEAN_ELEMENT_THEORY":"SGP4","NORAD_CAT_ID":"46689","REV_AT_EPOCH":"11318","PERIOD":"95.592","CENTER_NAME":"EARTH","ARG_OF_PERICENTER":"52.7708","DECAY_DATE":null,"COUNTRY_CODE":"US","ECCENTRICITY":"0.00015760","TLE_LINE1":"1 46689U 20073V   22302.39865612 -.00000511  00000-0 -15407-4 0  9994","MEAN_MOTION_DDOT":"0.0000000000000","MEAN_MOTION_DOT":"-0.00000511","OBJECT_NAME":"STARLINK-1788","CLASSIFICATION_TYPE":"U","TIME_SYSTEM":"UTC","BSTAR":"-0.00001540700000","OBJECT_ID":"2020-073V","PERIAPSIS":"546.120","RCS_SIZE":"LARGE","INCLINATION":"53.0559","EPHEMERIS_TYPE":"0","SITE":"AFETR","ELEMENT_SET_NO":"999","SEMIMAJOR_AXIS":"6925.346","RA_OF_ASC_NODE":"6.1386","GP_ID":"216437321","TLE_LINE2":"2 46689  53.0559   6.1386 0001576  52.7708 307.3425 15.06400718113184","MEAN_ANOMALY":"307.3425","EPOCH":"2022-10-29T09:34:03.888768","APOAPSIS":"548.303"},{"DECAY_DATE":null,"COUNTRY_CODE":"US","ECCENTRICITY":"0.00015840","TLE_LINE1":"1 46690U 20073W   22302.59815824 -.00000265  00000-0  10832-5 0  9991","MEAN_MOTION_DDOT":"0.0000000000000","MEAN_MOTION_DOT":"-0.00000265","OBJECT_NAME":"STARLINK-1789","CLASSIFICATION_TYPE":"U","TIME_SYSTEM":"UTC","OBJECT_ID":"2020-073W","BSTAR":"0.00000108320000","PERIAPSIS":"546.107","RCS_SIZE":"LARGE","INCLINATION":"53.0559","EPHEMERIS_TYPE":"0","SITE":"AFETR","ELEMENT_SET_NO":"999","SEMIMAJOR_AXIS":"6925.339","RA_OF_ASC_NODE":"340.2594","GP_ID":"216474130","TLE_LINE2":"2 46690  53.0559 340.2594 0001584  51.4785 308.6346 15.06403141112312","EPOCH":"2022-10-29T14:21:20.871936","MEAN_ANOMALY":"308.6346","APOAPSIS":"548.301","FILE":"3637863","OBJECT_TYPE":"PAYLOAD","REF_FRAME":"TEME","LAUNCH_DATE":"2020-10-18","MEAN_MOTION":"15.06403141","MEAN_ELEMENT_THEORY":"SGP4","NORAD_CAT_ID":"46690","REV_AT_EPOCH":"11231","PERIOD":"95.592","CENTER_NAME":"EARTH","ARG_OF_PERICENTER":"51.4785"},{"ARG_OF_PERICENTER":"45.4527","CENTER_NAME":"EARTH","PERIOD":"95.592","REV_AT_EPOCH":"11221","NORAD_CAT_ID":"46691","MEAN_ELEMENT_THEORY":"SGP4","LAUNCH_DATE":"2020-10-18","MEAN_MOTION":"15.06406659","REF_FRAME":"TEME","OBJECT_TYPE":"PAYLOAD","FILE":"3637863","APOAPSIS":"548.530","TLE_LINE2":"2 46691  53.0561 349.0612 0001931  45.4527 314.6620 15.06406659112215","EPOCH":"2022-10-29T20:42:10.739520","MEAN_ANOMALY":"314.6620","GP_ID":"216474880","SEMIMAJOR_AXIS":"6925.328","RA_OF_ASC_NODE":"349.0612","ELEMENT_SET_NO":"999","SITE":"AFETR","EPHEMERIS_TYPE":"0","RCS_SIZE":"LARGE","INCLINATION":"53.0561","OBJECT_ID":"2020-073X","BSTAR":"0.00005127200000","PERIAPSIS":"545.856","TIME_SYSTEM":"UTC","CLASSIFICATION_TYPE":"U","MEAN_MOTION_DOT":"0.00000482","OBJECT_NAME":"STARLINK-1790","MEAN_MOTION_DDOT":"0.0000000000000","ECCENTRICITY":"0.00019310","TLE_LINE1":"1 46691U 20073X   22302.86262430  .00000482  00000-0  51272-4 0  9993","DECAY_DATE":null,"COUNTRY_CODE":"US"},{"RCS_SIZE":"LARGE","INCLINATION":"53.0548","OBJECT_ID":"2020-073Y","BSTAR":"0.00005948900000","PERIAPSIS":"546.269","TIME_SYSTEM":"UTC","CLASSIFICATION_TYPE":"U","MEAN_MOTION_DOT":"0.00000605","OBJECT_NAME":"STARLINK-1791","MEAN_MOTION_DDOT":"0.0000000000000","ECCENTRICITY":"0.00013470","TLE_LINE1":"1 46692U 20073Y   22302.58295595  .00000605  00000-0  59489-4 0  9996","COUNTRY_CODE":"US","DECAY_DATE":null,"APOAPSIS":"548.135","TLE_LINE2":"2 46692  53.0548   5.3095 0001347  81.9151 278.1990 15.06403793111968","EPOCH":"2022-10-29T13:59:27.394080","MEAN_ANOMALY":"278.1990","GP_ID":"216475110","SEMIMAJOR_AXIS":"6925.337","RA_OF_ASC_NODE":"5.3095","ELEMENT_SET_NO":"999","SITE":"AFETR","EPHEMERIS_TYPE":"0","LAUNCH_DATE":"2020-10-18","MEAN_MOTION":"15.06403793","REF_FRAME":"TEME","OBJECT_TYPE":"PAYLOAD","FILE":"3637863","ARG_OF_PERICENTER":"81.9151","CENTER_NAME":"EARTH","PERIOD":"95.592","REV_AT_EPOCH":"11196","NORAD_CAT_ID":"46692","MEAN_ELEMENT_THEORY":"SGP4"},{"GP_ID":"216473880","MEAN_ANOMALY":"316.3403","EPOCH":"2022-10-29T12:49:46.589664","TLE_LINE2":"2 46693  53.0545 350.5498 0001859  43.7734 316.3403 15.06406994112162","APOAPSIS":"548.480","EPHEMERIS_TYPE":"0","SITE":"AFETR","ELEMENT_SET_NO":"999","SEMIMAJOR_AXIS":"6925.327","RA_OF_ASC_NODE":"350.5498","CLASSIFICATION_TYPE":"U","TIME_SYSTEM":"UTC","PERIAPSIS":"545.905","BSTAR":"-0.00012628000000","OBJECT_ID":"2020-073Z","INCLINATION":"53.0545","RCS_SIZE":"LARGE","COUNTRY_CODE":"US","DECAY_DATE":null,"TLE_LINE1":"1 46693U 20073Z   22302.53456701 -.00002162  00000-0 -12628-3 0  9995","ECCENTRICITY":"0.00018590","MEAN_MOTION_DDOT":"0.0000000000000","OBJECT_NAME":"STARLINK-1792","MEAN_MOTION_DOT":"-0.00002162","PERIOD":"95.592","CENTER_NAME":"EARTH","ARG_OF_PERICENTER":"43.7734","MEAN_ELEMENT_THEORY":"SGP4","NORAD_CAT_ID":"46693","REV_AT_EPOCH":"11216","REF_FRAME":"TEME","MEAN_MOTION":"15.06406994","LAUNCH_DATE":"2020-10-18","FILE":"3637863","OBJECT_TYPE":"PAYLOAD"},{"REF_FRAME":"TEME","LAUNCH_DATE":"2020-10-18","MEAN_MOTION":"15.06403471","FILE":"3637424","OBJECT_TYPE":"PAYLOAD","PERIOD":"95.592","CENTER_NAME":"EARTH","ARG_OF_PERICENTER":"58.7733","MEAN_ELEMENT_THEORY":"SGP4","NORAD_CAT_ID":"46694","REV_AT_EPOCH":"11242","CLASSIFICATION_TYPE":"U","TIME_SYSTEM":"UTC","BSTAR":"0.00005758300000","OBJECT_ID":"2020-073AA","PERIAPSIS":"546.017","RCS_SIZE":"LARGE","INCLINATION":"53.0558","DECAY_DATE":null,"COUNTRY_CODE":"US","ECCENTRICITY":"0.00017130","TLE_LINE1":"1 46694U 20073AA  22302.35949199  .00000576  00000-0  57583-4 0  9999","MEAN_MOTION_DDOT":"0.0000000000000","MEAN_MOTION_DOT":"0.00000576","OBJECT_NAME":"STARLINK-1793","GP_ID":"216438570","TLE_LINE2":"2 46694  53.0558 331.3260 0001713  58.7733 301.3423 15.06403471112427","MEAN_ANOMALY":"301.3423","EPOCH":"2022-10-29T08:37:40.107936","APOAPSIS":"548.389","EPHEMERIS_TYPE":"0","SITE":"AFETR","ELEMENT_SET_NO":"999","SEMIMAJOR_AXIS":"6925.338","RA_OF_ASC_NODE":"331.3260"},{"NORAD_CAT_ID":"46696","REV_AT_EPOCH":"11248","MEAN_ELEMENT_THEORY":"SGP4","CENTER_NAME":"EARTH","ARG_OF_PERICENTER":"47.1844","PERIOD":"95.592","FILE":"3637863","OBJECT_TYPE":"PAYLOAD","MEAN_MOTION":"15.06403459","LAUNCH_DATE":"2020-10-18","REF_FRAME":"TEME","ELEMENT_SET_NO":"999","RA_OF_ASC_NODE":"329.4581","SEMIMAJOR_AXIS":"6925.338","EPHEMERIS_TYPE":"0","SITE":"AFETR","MEAN_ANOMALY":"312.9327","EPOCH":"2022-10-29T18:37:26.662656","TLE_LINE2":"2 46696  53.0555 329.4581 0002167  47.1844 312.9327 15.06403459112482","APOAPSIS":"548.704","GP_ID":"216474381","MEAN_MOTION_DDOT":"0.0000000000000","OBJECT_NAME":"STARLINK-1795","MEAN_MOTION_DOT":"0.00000148","COUNTRY_CODE":"US","DECAY_DATE":null,"TLE_LINE1":"1 46696U 20073AC  22302.77600304  .00000148  00000-0  28851-4 0  9990","ECCENTRICITY":"0.00021670","PERIAPSIS":"545.702","OBJECT_ID":"2020-073AC","BSTAR":"0.00002885100000","INCLINATION":"53.0555","RCS_SIZE":"LARGE","CLASSIFICATION_TYPE":"U","TIME_SYSTEM":"UTC"},{"ARG_OF_PERICENTER":"54.1938","CENTER_NAME":"EARTH","PERIOD":"95.592","REV_AT_EPOCH":"11218","NORAD_CAT_ID":"46698","MEAN_ELEMENT_THEORY":"SGP4","LAUNCH_DATE":"2020-10-18","MEAN_MOTION":"15.06400961","REF_FRAME":"TEME","OBJECT_TYPE":"PAYLOAD","FILE":"3637863","APOAPSIS":"548.366","TLE_LINE2":"2 46698  53.0563 350.0812 0001669  54.1938 305.9206 15.06400961112188","EPOCH":"2022-10-29T15:11:43.879200","MEAN_ANOMALY":"305.9206","GP_ID":"216474610","SEMIMAJOR_AXIS":"6925.346","RA_OF_ASC_NODE":"350.0812","ELEMENT_SET_NO":"999","SITE":"AFETR","EPHEMERIS_TYPE":"0","RCS_SIZE":"LARGE","INCLINATION":"53.0563","OBJECT_ID":"2020-073AE","BSTAR":"-0.00012307000000","PERIAPSIS":"546.055","TIME_SYSTEM":"UTC","CLASSIFICATION_TYPE":"U","MEAN_MOTION_DOT":"-0.00002114","OBJECT_NAME":"STARLINK-1797","MEAN_MOTION_DDOT":"0.0000000000000","ECCENTRICITY":"0.00016690","TLE_LINE1":"1 46698U 20073AE  22302.63314675 -.00002114  00000-0 -12307-3 0  9995","COUNTRY_CODE":"US","DECAY_DATE":null},{"PERIOD":"95.592","ARG_OF_PERICENTER":"56.1367","CENTER_NAME":"EARTH","MEAN_ELEMENT_THEORY":"SGP4","REV_AT_EPOCH":"11216","NORAD_CAT_ID":"46699","REF_FRAME":"TEME","LAUNCH_DATE":"2020-10-18","MEAN_MOTION":"15.06400042","OBJECT_TYPE":"PAYLOAD","FILE":"3637863","GP_ID":"216473381","APOAPSIS":"548.298","TLE_LINE2":"2 46699  53.0563 350.6698 0001566  56.1367 303.9771 15.06400042112164","MEAN_ANOMALY":"303.9771","EPOCH":"2022-10-29T12:07:19.813152","SITE":"AFETR","EPHEMERIS_TYPE":"0","SEMIMAJOR_AXIS":"6925.348","RA_OF_ASC_NODE":"350.6698","ELEMENT_SET_NO":"999","TIME_SYSTEM":"UTC","CLASSIFICATION_TYPE":"U","RCS_SIZE":"LARGE","INCLINATION":"53.0563","BSTAR":"-0.00007187600000","OBJECT_ID":"2020-073AF","PERIAPSIS":"546.129","ECCENTRICITY":"0.00015660","TLE_LINE1":"1 46699U 20073AF  22302.50509043 -.00001352  00000-0 -71876-4 0  9997","COUNTRY_CODE":"US","DECAY_DATE":null,"MEAN_MOTION_DOT":"-0.00001352","OBJECT_NAME":"STARLINK-1799","MEAN_MOTION_DDOT":"0.0000000000000"},{"CLASSIFICATION_TYPE":"U","TIME_SYSTEM":"UTC","BSTAR":"-0.00002915800000","OBJECT_ID":"2020-073AG","PERIAPSIS":"546.101","RCS_SIZE":"LARGE","INCLINATION":"53.0544","DECAY_DATE":null,"COUNTRY_CODE":"US","ECCENTRICITY":"0.00015940","TLE_LINE1":"1 46700U 20073AG  22302.64192420 -.00000716  00000-0 -29158-4 0  9991","MEAN_MOTION_DDOT":"0.0000000000000","MEAN_MOTION_DOT":"-0.00000716","OBJECT_NAME":"STARLINK-1800","GP_ID":"216474131","TLE_LINE2":"2 46700  53.0544   5.0650 0001594  54.5289 305.5848 15.06402696111979","EPOCH":"2022-10-29T15:24:22.250880","MEAN_ANOMALY":"305.5848","APOAPSIS":"548.309","EPHEMERIS_TYPE":"0","SITE":"AFETR","ELEMENT_SET_NO":"999","RA_OF_ASC_NODE":"5.0650","SEMIMAJOR_AXIS":"6925.340","REF_FRAME":"TEME","LAUNCH_DATE":"2020-10-18","MEAN_MOTION":"15.06402696","FILE":"3637863","OBJECT_TYPE":"PAYLOAD","PERIOD":"95.592","CENTER_NAME":"EARTH","ARG_OF_PERICENTER":"54.5289","MEAN_ELEMENT_THEORY":"SGP4","NORAD_CAT_ID":"46700","REV_AT_EPOCH":"11197"}];
